#aV2020  1  6  0  0  0.00000000     288 DD+AD WGS84 FIT  NGA
## 2087  86400.00000000   300.00000000 58854 0.0000000000000
+   32     1  2  3  4  5  6  7  8  9 10 11 12 13 14 15 16 17
+         18 19 20 21 22 23 24 25 26 27 28 29 30 31 32  0  0
+          0  0  0  0  0  0  0  0  0  0  0  0  0  0  0  0  0
+          0  0  0  0  0  0  0  0  0  0  0  0  0  0  0  0  0
+          0  0  0  0  0  0  0  0  0  0  0  0  0  0  0  0  0
++         2  2  2  2  2  2  2  2  2  2  2  2  2  2  2  2  2
++         2  2  2  2  2  2  2  2  2  2  2  2  2  2  2  0  0
++         0  0  0  0  0  0  0  0  0  0  0  0  0  0  0  0  0
++         0  0  0  0  0  0  0  0  0  0  0  0  0  0  0  0  0
++         0  0  0  0  0  0  0  0  0  0  0  0  0  0  0  0  0
%c cc cc ccc ccc cccc cccc cccc cccc ccccc ccccc ccccc ccccc
%c cc cc ccc ccc cccc cccc cccc cccc ccccc ccccc ccccc ccccc
%f  0.0000000  0.000000000  0.00000000000  0.000000000000000
%f  0.0000000  0.000000000  0.00000000000  0.000000000000000
%i    0    0    0    0      0      0      0      0         0
%i    0    0    0    0      0      0      0      0         0
/*      NGA, ST. LOUIS,MO.                                  
/*   EPHEMERIS COMPUTED FROM 2 DAYS OF DATA                 
/*   EPOCHA v5 SMOOTHER                                     
/*   G1762 IERS2010 SATAF SATAPC                            
*  2020  1  6  7 25  0.00000000
P  1  21767.651899  14822.656248  -4808.196938   -253.501155                    
V  1  -6013.878464   -946.143031 -31167.603441     -0.121859                    
P  2  -3069.721392 -17140.766456  20719.198614   -380.586201                    
V  2  23236.549063   8934.784147  11080.436314     -0.072460                    
P  3  13034.457094  15028.921130  17583.027606    -66.792482                    
V  3   -321.680281  22450.564039 -18798.694856     -0.074726                    
P  4  16498.936859   6247.245908  19867.032067    -30.365765                    
V  4 -20921.684205  14115.550601  12919.708530     -0.053431                    
P  5  -2609.964704 -26320.836420   -509.067251     -5.706341                    
V  5   3226.110311   -766.966127  31669.906136     -0.005385                    
P  6  10533.035005 -11103.655533  21763.854678   -174.532863                    
V  6  24359.282437  12662.921994  -5309.942248     -0.104953                    
P  7  24097.223569   3996.023735 -10712.858578   -186.005641                    
V  7  11217.156275   8499.305659  27194.882586     -0.082694                    
P  8   7268.955025  13163.892869 -21849.129086    -19.274182                    
V  8 -23175.049662  15373.576664   1777.959118     -0.012240                    
P  9  22398.570560  -3241.391419  13851.777154   -125.988005                    
V  9 -13326.509581  11892.344418  24222.683582     -0.088057                    
P 10 -11869.889474  14886.157573 -18349.614112   -199.375947                    
V 10  -2964.695663 -23387.597973 -17213.865188     -0.137631                    
P 11  20107.396923  10853.204878 -13763.429882   -398.152465                    
V 11 -16981.689375   3234.006760 -23395.411053      0.108970                    
P 12  -9882.619072 -19386.209416  15127.900975    165.344242                    
V 12   1808.583719 -19474.314191 -23266.105673     -0.040744                    
P 13   2227.088407 -16829.078410 -20531.871146    -21.838637                    
V 13  23590.593042 -10466.725092  11281.121827      0.025240                    
P 14 -14794.211402  18170.848195  12652.836677    -40.464968                    
V 14 -14844.121543   5410.034397 -25974.535664      0.022777                    
P 15  -9847.729199 -12702.724615 -21443.500515   -260.552486                    
V 15  20873.595577 -16595.508061    634.438536      0.026279                    
P 16   -805.240599  26300.171903    -59.249603   -110.655997                    
V 16  -2565.235998   -246.490180  32490.339544     -0.039740                    
P 17  21641.924423 -15056.920468   3339.774212    193.743786                    
V 17   4249.830635    -55.335177 -31935.455577      0.066626                    
P 18  16381.833975  17017.104166 -12738.553311    111.607155                    
V 18 -14931.697969  -4182.342099 -25730.236056      0.025003                    
P 19  18046.237732 -16693.173700   9777.680691   -216.303649                    
V 19  12288.938864  -4126.466903 -28855.128143      0.051587                    
P 20 -15400.482214   3861.911151 -21379.692517    527.756302                    
V 20  -5184.608692 -26546.716911  -1268.782587      0.000493                    
P 21 -23050.251653   -410.349708 -12193.309238    -59.869869                    
V 21 -14334.264141  -9343.567856  25982.734561      0.056124                    
P 22  11528.455263  21196.414167  11439.353186   -780.880367                    
V 22  -1110.767544  14514.459678 -26169.528642     -0.014980                    
P 23  18081.495061   4645.789885  19379.552273   -144.903695                    
V 23 -18917.330042  14505.624120  14053.949819      0.024346                    
P 24 -21210.344533 -14821.734991  -6966.345787     -7.211697                    
V 24   9049.913320    625.350387 -29319.964071     -0.005098                    
P 25 -14847.638010  -5749.501881  21080.750589    -16.536341                    
V 25   -919.038039 -27205.204861  -7721.790641      0.006193                    
P 26  -5056.609324  23989.708653   9921.240938    121.408567                    
V 26  -4097.877144 -12414.067810  28073.047443      0.080447                    
P 27  -4633.981381  18175.346525 -18787.580207   -172.786360                    
V 27 -20529.910381  11889.595833  16980.072037     -0.114168                    
P 28  12030.084731 -15850.646773 -17062.116881    746.802117                    
V 28    659.658287  22787.236226 -19881.775019     -0.020625                    
P 29 -22320.353813   1686.846826  14282.520254     -0.385802                    
V 29  15050.347884 -10231.717281  24656.690715     -0.097145                    
P 30  18088.414802  -5596.994358 -18673.401323   -122.808755                    
V 30  20019.510784  12927.139292  15297.012459     -0.087643                    
P 31  -8766.464857  12569.946358  21680.622464    -14.694133                    
V 31 -24283.115495 -13097.675867  -1767.917734     -0.024934                    
P 32 -20642.401981  16321.492337   3064.107062    177.017482                    
V 32  -4879.603844   -414.916915 -31425.655305      0.108231                    
EOF
